[{"OBJECT_NAME":"TEVEL2-6","OBJECT_ID":"2025-052F","EPOCH":"2026-03-09T15:35:24.554400","MEAN_MOTION":15.30760889,"ECCENTRICITY":0.0004769,"INCLINATION":97.4016,"RA_OF_ASC_NODE":325.0381,"ARG_OF_PERICENTER":95.6604,"MEAN_ANOMALY":264.5181,"EPHEMERIS_TYPE":0,"CLASSIFICATION_TYPE":"U","NORAD_CAT_ID":63215,"ELEMENT_SET_NO":999,"REV_AT_EPOCH":5486,"BSTAR":0.00070909,"MEAN_MOTION_DOT":0.00021046,"MEAN_MOTION_DDOT":0},{"OBJECT_NAME":"STARLINK-34300","OBJECT_ID":"2025-117R","EPOCH":"2026-03-09T04:44:33.704448","MEAN_MOTION":15.30181729,"ECCENTRICITY":0.00012557,"INCLINATION":53.161,"RA_OF_ASC_NODE":41.6565,"ARG_OF_PERICENTER":91.9459,"MEAN_ANOMALY":268.1686,"EPHEMERIS_TYPE":0,"CLASSIFICATION_TYPE":"U","NORAD_CAT_ID":64218,"ELEMENT_SET_NO":999,"REV_AT_EPOCH":4445,"BSTAR":0.0012626008,"MEAN_MOTION_DOT":0.00037202,"MEAN_MOTION_DDOT":0}]
